     2              NAVIGATION DATA                         RINEX VERSION / TYPE
CCRINEXN V1.6.0 UX  CDDIS               16-NOV-21 18:31     PGM / RUN BY / DATE 
IGS BROADCAST EPHEMERIS FILE                                COMMENT             
    0.1211D-07 -0.7451D-08 -0.1192D-06  0.5960D-07          ION ALPHA           
    0.9830D+05 -0.8192D+05 -0.1966D+06  0.4588D+06          ION BETA            
    0.000000000000D+00 0.266453525910D-14   319488     2184 DELTA-UTC: A0,A1,T,W
    18                                                      LEAP SECONDS        
                                                            END OF HEADER       
21 21 11 15  8  0  0.0 0.151052605361D-03 0.113686837722D-11 0.000000000000D+00
    0.150000000000D+02 0.127500000000D+02 0.428267839074D-08-0.202355870964D+01
    0.111386179924D-05 0.242122204509D-01 0.108703970909D-04 0.515362395668D+04
    0.115200000000D+06-0.149011611938D-06-0.370831129165D+00 0.532716512680D-06
    0.959049634941D+00 0.169250000000D+03-0.105821109241D+01-0.771282126996D-08
    0.206080012631D-09 0.100000000000D+01 0.218400000000D+04 0.000000000000D+00
    0.200000000000D+01 0.000000000000D+00-0.102445483208D-07 0.150000000000D+02
    0.108018000000D+06 0.400000000000D+01 0.000000000000D+00 0.000000000000D+00
22 21 11 15  8  0  0.0-0.464427284896D-03 0.909494701773D-11 0.000000000000D+00
    0.860000000000D+02 0.262500000000D+02 0.533343644475D-08 0.300452818243D+01
    0.133924186230D-05 0.674071919639D-02 0.463426113129D-05 0.515368119240D+04
    0.115200000000D+06 0.260770320892D-07 0.647450966006D+00 0.186264514923D-06
    0.937152017355D+00 0.274531250000D+03-0.878122395105D+00-0.847035282419D-08
    0.257510726355D-09 0.100000000000D+01 0.218400000000D+04 0.000000000000D+00
    0.200000000000D+01 0.000000000000D+00-0.176951289177D-07 0.860000000000D+02
    0.108018000000D+06 0.400000000000D+01 0.000000000000D+00 0.000000000000D+00
23 21 11 15  8  0  0.0 0.327890738845D-04-0.443378667114D-11 0.000000000000D+00
    0.100000000000D+02 0.189687500000D+02 0.484877339945D-08 0.136887926060D+01
    0.100024044514D-05 0.187856378034D-02 0.459887087345D-05 0.515368008041D+04
    0.115200000000D+06 0.204890966415D-07 0.725762566833D+00-0.260770320892D-07
    0.966151410256D+00 0.291843750000D+03 0.279118461860D+01-0.833713298934D-08
    0.142863093678D-09 0.100000000000D+01 0.218400000000D+04 0.000000000000D+00
    0.200000000000D+01 0.000000000000D+00-0.838190317154D-08 0.522000000000D+03
    0.110268000000D+06 0.400000000000D+01 0.000000000000D+00 0.000000000000D+00
24 21 11 15  8  0  0.0 0.267167109996D-03 0.397903932026D-11 0.000000000000D+00
    0.260000000000D+02 0.521875000000D+02 0.478484216503D-08 0.223038168039D+01
    0.260211527348D-05 0.119771438185D-01 0.121388584375D-04 0.515371265984D+04
    0.115200000000D+06-0.132247805595D-06 0.277305971752D+01-0.197440385819D-06
    0.935001239583D+00 0.130187500000D+03 0.778675289717D+00-0.808140805165D-08
    0.137505727665D-09 0.100000000000D+01 0.218400000000D+04 0.000000000000D+00
    0.200000000000D+01 0.000000000000D+00 0.232830643654D-08 0.260000000000D+02
    0.108082000000D+06 0.400000000000D+01 0.000000000000D+00 0.000000000000D+00
25 21 11 15  8  0  0.0 0.240847468376D-03 0.591171556152D-11 0.000000000000D+00
    0.550000000000D+02 0.538437500000D+02 0.492234789269D-08 0.375560618967D+00
    0.268593430519D-05 0.100254229037D-01 0.382214784622D-05 0.515374994278D+04
    0.115200000000D+06-0.119209289551D-06-0.239293908781D+01 0.132247805595D-06
    0.958963347644D+00 0.307156250000D+03 0.963808080281D+00-0.859285792702D-08
    0.152149194767D-09 0.100000000000D+01 0.218400000000D+04 0.000000000000D+00
    0.200000000000D+01 0.000000000000D+00 0.558793544769D-08 0.550000000000D+02
    0.112099000000D+06 0.400000000000D+01 0.000000000000D+00 0.000000000000D+00
26 21 11 15  8  0  0.0 0.155505724251D-03 0.375166564481D-11 0.000000000000D+00
    0.870000000000D+02 0.547500000000D+02 0.529772067133D-08-0.275055736033D+00
    0.289641320705D-05 0.643091648817D-02 0.358372926712D-05 0.515365016174D+04
    0.115200000000D+06 0.838190317154D-07-0.243822721187D+01 0.670552253723D-07
    0.939870540466D+00 0.297125000000D+03 0.309672270613D+00-0.872107755360D-08
    0.213223167315D-09 0.100000000000D+01 0.218400000000D+04 0.000000000000D+00
    0.200000000000D+01 0.000000000000D+00 0.698491930962D-08 0.870000000000D+02
    0.108018000000D+06 0.400000000000D+01 0.000000000000D+00 0.000000000000D+00
27 21 11 15  8  0  0.0-0.219375826418D-03-0.466116034659D-11 0.000000000000D+00
    0.800000000000D+02-0.747500000000D+02 0.430160775066D-08-0.216915317085D+01
   -0.404939055443D-05 0.968190375716D-02 0.680796802044D-05 0.515364455414D+04
    0.115200000000D+06 0.558793544769D-07-0.134166438930D+01-0.145286321640D-06
    0.974149617882D+00 0.254625000000D+03 0.627430993534D+00-0.793818780024D-08
   -0.198222542479D-09 0.100000000000D+01 0.218400000000D+04 0.000000000000D+00
    0.200000000000D+01 0.000000000000D+00 0.186264514923D-08 0.800000000000D+02
    0.108018000000D+06 0.400000000000D+01 0.000000000000D+00 0.000000000000D+00
28 21 11 15  8  0  0.0 0.462492927909D-03-0.761701812735D-11 0.000000000000D+00
    0.310000000000D+02 0.374062500000D+02 0.457376194411D-08-0.167622575625D+01
    0.238232314587D-05 0.173494089395D-01 0.369176268578D-05 0.515371021652D+04
    0.115200000000D+06-0.134110450745D-06-0.229514631310D+01 0.409781932831D-06
    0.970605687131D+00 0.315843750000D+03-0.131433005464D+01-0.827641617453D-08
    0.132148361653D-09 0.100000000000D+01 0.218400000000D+04 0.000000000000D+00
    0.280000000000D+01 0.630000000000D+02-0.111758708954D-07 0.310000000000D+02
    0.108018000000D+06 0.400000000000D+01 0.000000000000D+00 0.000000000000D+00
29 21 11 15  8  0  0.0-0.440826173872D-03-0.522959453519D-11 0.000000000000D+00
    0.420000000000D+02-0.749062500000D+02 0.414302971667D-08-0.212930721323D+01
   -0.376813113689D-05 0.183405936696D-02 0.821612775326D-05 0.515355579758D+04
    0.115200000000D+06 0.000000000000D+00-0.126696749812D+01 0.186264514923D-08
    0.982483496450D+00 0.235593750000D+03 0.238386811797D+01-0.791711549392D-08
   -0.330728061866D-09 0.100000000000D+01 0.218400000000D+04 0.000000000000D+00
    0.200000000000D+01 0.000000000000D+00-0.102445483208D-07 0.420000000000D+02
    0.114643000000D+06 0.400000000000D+01 0.000000000000D+00 0.000000000000D+00
30 21 11 15  8  0  0.0-0.491489656270D-03-0.318323145621D-11 0.000000000000D+00
    0.900000000000D+02 0.604062500000D+02 0.482162941165D-08 0.120514847731D+01
    0.324472784996D-05 0.534963770769D-02 0.105407088995D-04 0.515362489319D+04
    0.115200000000D+06-0.126659870148D-06 0.286873598187D+01 0.800937414169D-07
    0.936773279567D+00 0.164437500000D+03-0.274473563394D+01-0.816284001505D-08
    0.617882880159D-10 0.100000000000D+01 0.218400000000D+04 0.000000000000D+00
    0.200000000000D+01 0.000000000000D+00 0.372529029846D-08 0.900000000000D+02
    0.108018000000D+06 0.400000000000D+01 0.000000000000D+00 0.000000000000D+00
31 21 11 15  8  0  0.0-0.150235369801D-03-0.193267624127D-11 0.000000000000D+00
    0.890000000000D+02 0.538437500000D+02 0.436339603867D-08 0.808007369207D+00
    0.306032598019D-05 0.103637481807D-01 0.106543302536D-04 0.515364884186D+04
    0.115200000000D+06-0.130385160446D-07 0.287191009131D+01 0.189989805222D-06
    0.955862477726D+00 0.170156250000D+03 0.331810991728D+00-0.797461788913D-08
    0.875036448780D-10 0.100000000000D+01 0.218400000000D+04 0.000000000000D+00
    0.200000000000D+01 0.000000000000D+00-0.130385160446D-07 0.890000000000D+02
    0.108018000000D+06 0.400000000000D+01 0.000000000000D+00 0.000000000000D+00
32 21 11 15  8  0  0.0-0.222171656787D-04-0.477484718431D-11 0.000000000000D+00
    0.550000000000D+02-0.666875000000D+02 0.463697886307D-08-0.143166273941D+01
   -0.347197055817D-05 0.519564154092D-02 0.822544097900D-05 0.515373942566D+04
    0.115200000000D+06 0.204890966415D-06 0.179298867978D+01-0.108033418655D-06
    0.957320151244D+00 0.222093750000D+03-0.239054711728D+01-0.806605026908D-08
   -0.499663670140D-09 0.100000000000D+01 0.218400000000D+04 0.000000000000D+00
    0.200000000000D+01 0.000000000000D+00 0.465661287308D-09 0.550000000000D+02
    0.108018000000D+06 0.400000000000D+01 0.000000000000D+00 0.000000000000D+00
 1 21 11 15  9 59 44.0 0.510308891535D-03-0.104591890704D-10 0.000000000000D+00
    0.100000000000D+01-0.134375000000D+01 0.376194241429D-08 0.294207617744D+01
   -0.113621354103D-06 0.111063140212D-01 0.112261623144D-04 0.515367534638D+04
    0.122384000000D+06-0.223517417908D-07-0.282547447773D+00-0.173225998878D-06
    0.986428051705D+00 0.175218750000D+03 0.887075363049D+00-0.741173730004D-08
    0.278225874939D-09 0.100000000000D+01 0.218400000000D+04 0.000000000000D+00
    0.200000000000D+01 0.000000000000D+00 0.512227416039D-08 0.100000000000D+01
    0.122208000000D+06 0.400000000000D+01 0.000000000000D+00 0.000000000000D+00
17 21 11 15  9 59 44.0 0.533945858478D-03 0.534328137292D-11 0.000000000000D+00
    0.200000000000D+01-0.605000000000D+02 0.419481758813D-08-0.108481512373D+01
   -0.295788049698D-05 0.137598869624D-01 0.757537782192D-05 0.515370262337D+04
    0.122384000000D+06-0.253319740295D-06-0.127983934711D+01 0.197440385819D-06
    0.980515219172D+00 0.249500000000D+03-0.153797660964D+01-0.811640950961D-08
   -0.250724729406D-09 0.100000000000D+01 0.218400000000D+04 0.000000000000D+00
    0.200000000000D+01 0.000000000000D+00-0.111758708954D-07 0.200000000000D+01
    0.115296000000D+06 0.400000000000D+01 0.000000000000D+00 0.000000000000D+00
